{
  "type": "FeatureCollection",
  "features": [
    {
      "type": "Feature",
      "properties": {
        "norad_id": 58647,
        "name": "TIANMU-1 13",
        "group": "weather",
        "lat": 25.2952309068264,
        "lon": 17.64072499273794,
        "alt_km": 495.6741453184786,
        "timestamp": "2025-12-27T18:38:03.121768+00:00",
        "meta_object_name": "TIANMU-1 13",
        "meta_object_id": "2023-205C",
        "meta_epoch": "2025-12-27T12:13:19.739136",
        "meta_mean_motion": 15.24711477,
        "meta_eccentricity": 0.0006872,
        "meta_inclination": 97.3618,
        "meta_ra_of_asc_node": 20.8812,
        "meta_arg_of_pericenter": 203.573,
        "meta_mean_anomaly": 156.5194,
        "meta_ephemeris_type": 0,
        "meta_classification_type": "U",
        "meta_norad_cat_id": 58647,
        "meta_element_set_no": 999,
        "meta_rev_at_epoch": 11132,
        "meta_bstar": 0.00027583,
        "meta_mean_motion_dot": 6.757e-05,
        "meta_mean_motion_ddot": 0,
        "tle_line1": "1 58647U 23205C   25361.50925624  .00006757  00000+0  27583-3 0  9994",
        "tle_line2": "2 58647  97.3618  20.8812 0006872 203.5730 156.5194 15.24711477111328"
      },
      "geometry": {
        "type": "Point",
        "coordinates": [
          17.64072499273794,
          25.2952309068264
        ]
      }
    },
    {
      "type": "Feature",
      "properties": {
        "norad_id": 58648,
        "name": "TIANMU-1 14",
        "group": "weather",
        "lat": 63.31568969931938,
        "lon": -144.62926088279474,
        "alt_km": 485.821900198237,
        "timestamp": "2025-12-27T18:38:03.121807+00:00",
        "meta_object_name": "TIANMU-1 14",
        "meta_object_id": "2023-205D",
        "meta_epoch": "2025-12-27T13:24:10.052352",
        "meta_mean_motion": 15.24694737,
        "meta_eccentricity": 0.0007562,
        "meta_inclination": 97.355,
        "meta_ra_of_asc_node": 20.2646,
        "meta_arg_of_pericenter": 209.4616,
        "meta_mean_anomaly": 150.6197,
        "meta_ephemeris_type": 0,
        "meta_classification_type": "U",
        "meta_norad_cat_id": 58648,
        "meta_element_set_no": 999,
        "meta_rev_at_epoch": 11133,
        "meta_bstar": 0.00028832,
        "meta_mean_motion_dot": 7.064e-05,
        "meta_mean_motion_ddot": 0,
        "tle_line1": "1 58648U 23205D   25361.55844968  .00007064  00000+0  28832-3 0  9991",
        "tle_line2": "2 58648  97.3550  20.2646 0007562 209.4616 150.6197 15.24694737111336"
      },
      "geometry": {
        "type": "Point",
        "coordinates": [
          -144.62926088279474,
          63.31568969931938
        ]
      }
    },
    {
      "type": "Feature",
      "properties": {
        "norad_id": 58660,
        "name": "TIANMU-1 19",
        "group": "weather",
        "lat": -13.715519171956739,
        "lon": -69.04121473078295,
        "alt_km": 482.6864302820277,
        "timestamp": "2025-12-27T18:38:03.121825+00:00",
        "meta_object_name": "TIANMU-1 19",
        "meta_object_id": "2023-208A",
        "meta_epoch": "2025-12-27T13:04:27.809184",
        "meta_mean_motion": 15.28125464,
        "meta_eccentricity": 0.0004974,
        "meta_inclination": 97.4383,
        "meta_ra_of_asc_node": 112.5548,
        "meta_arg_of_pericenter": 191.6541,
        "meta_mean_anomaly": 168.4584,
        "meta_ephemeris_type": 0,
        "meta_classification_type": "U",
        "meta_norad_cat_id": 58660,
        "meta_element_set_no": 999,
        "meta_rev_at_epoch": 11108,
        "meta_bstar": 0.00040029,
        "meta_mean_motion_dot": 0.0001091,
        "meta_mean_motion_ddot": 0,
        "tle_line1": "1 58660U 23208A   25361.54476631  .00010910  00000+0  40029-3 0  9991",
        "tle_line2": "2 58660  97.4383 112.5548 0004974 191.6541 168.4584 15.28125464111083"
      },
      "geometry": {
        "type": "Point",
        "coordinates": [
          -69.04121473078295,
          -13.715519171956739
        ]
      }
    },
    {
      "type": "Feature",
      "properties": {
        "norad_id": 58661,
        "name": "TIANMU-1 20",
        "group": "weather",
        "lat": -27.519944597655556,
        "lon": 117.14826788472992,
        "alt_km": 486.63332916615036,
        "timestamp": "2025-12-27T18:38:03.121842+00:00",
        "meta_object_name": "TIANMU-1 20",
        "meta_object_id": "2023-208B",
        "meta_epoch": "2025-12-27T12:28:27.001344",
        "meta_mean_motion": 15.29316027,
        "meta_eccentricity": 0.0006978,
        "meta_inclination": 97.4321,
        "meta_ra_of_asc_node": 112.992,
        "meta_arg_of_pericenter": 205.6133,
        "meta_mean_anomaly": 154.4763,
        "meta_ephemeris_type": 0,
        "meta_classification_type": "U",
        "meta_norad_cat_id": 58661,
        "meta_element_set_no": 999,
        "meta_rev_at_epoch": 11115,
        "meta_bstar": 0.00039745,
        "meta_mean_motion_dot": 0.00011239,
        "meta_mean_motion_ddot": 0,
        "tle_line1": "1 58661U 23208B   25361.51975696  .00011239  00000+0  39745-3 0  9992",
        "tle_line2": "2 58661  97.4321 112.9920 0006978 205.6133 154.4763 15.29316027111153"
      },
      "geometry": {
        "type": "Point",
        "coordinates": [
          117.14826788472992,
          -27.519944597655556
        ]
      }
    },
    {
      "type": "Feature",
      "properties": {
        "norad_id": 58662,
        "name": "TIANMU-1 21",
        "group": "weather",
        "lat": 64.9781829994587,
        "lon": -48.524093328888334,
        "alt_km": 463.5011979912106,
        "timestamp": "2025-12-27T18:38:03.121858+00:00",
        "meta_object_name": "TIANMU-1 21",
        "meta_object_id": "2023-208C",
        "meta_epoch": "2025-12-27T13:26:06.345888",
        "meta_mean_motion": 15.3187618,
        "meta_eccentricity": 0.0006605,
        "meta_inclination": 97.437,
        "meta_ra_of_asc_node": 115.0072,
        "meta_arg_of_pericenter": 199.7958,
        "meta_mean_anomaly": 160.3028,
        "meta_ephemeris_type": 0,
        "meta_classification_type": "U",
        "meta_norad_cat_id": 58662,
        "meta_element_set_no": 999,
        "meta_rev_at_epoch": 11126,
        "meta_bstar": 0.0004142,
        "meta_mean_motion_dot": 0.00012685,
        "meta_mean_motion_ddot": 0,
        "tle_line1": "1 58662U 23208C   25361.55979567  .00012685  00000+0  41420-3 0  9997",
        "tle_line2": "2 58662  97.4370 115.0072 0006605 199.7958 160.3028 15.31876180111261"
      },
      "geometry": {
        "type": "Point",
        "coordinates": [
          -48.524093328888334,
          64.9781829994587
        ]
      }
    },
    {
      "type": "Feature",
      "properties": {
        "norad_id": 58663,
        "name": "TIANMU-1 22",
        "group": "weather",
        "lat": -1.208475739800002,
        "lon": -67.31981130896135,
        "alt_km": 483.6168566596234,
        "timestamp": "2025-12-27T18:38:03.121876+00:00",
        "meta_object_name": "TIANMU-1 22",
        "meta_object_id": "2023-208D",
        "meta_epoch": "2025-12-27T13:07:42.165984",
        "meta_mean_motion": 15.27859911,
        "meta_eccentricity": 0.000314,
        "meta_inclination": 97.4377,
        "meta_ra_of_asc_node": 112.6092,
        "meta_arg_of_pericenter": 213.4482,
        "meta_mean_anomaly": 146.6559,
        "meta_ephemeris_type": 0,
        "meta_classification_type": "U",
        "meta_norad_cat_id": 58663,
        "meta_element_set_no": 999,
        "meta_rev_at_epoch": 11109,
        "meta_bstar": 0.00037376,
        "meta_mean_motion_dot": 0.00010097,
        "meta_mean_motion_ddot": 0,
        "tle_line1": "1 58663U 23208D   25361.54701581  .00010097  00000+0  37376-3 0  9996",
        "tle_line2": "2 58663  97.4377 112.6092 0003140 213.4482 146.6559 15.27859911111096"
      },
      "geometry": {
        "type": "Point",
        "coordinates": [
          -67.31981130896135,
          -1.208475739800002
        ]
      }
    },
    {
      "type": "Feature",
      "properties": {
        "norad_id": 58700,
        "name": "TIANMU-1 15",
        "group": "weather",
        "lat": 42.960330921275414,
        "lon": 10.201383914507577,
        "alt_km": 488.46503545770156,
        "timestamp": "2025-12-27T18:38:03.121892+00:00",
        "meta_object_name": "TIANMU-1 15",
        "meta_object_id": "2024-004A",
        "meta_epoch": "2025-12-27T13:18:41.080032",
        "meta_mean_motion": 15.24608534,
        "meta_eccentricity": 0.0006168,
        "meta_inclination": 97.4631,
        "meta_ra_of_asc_node": 182.9687,
        "meta_arg_of_pericenter": 227.356,
        "meta_mean_anomaly": 132.7158,
        "meta_ephemeris_type": 0,
        "meta_classification_type": "U",
        "meta_norad_cat_id": 58700,
        "meta_element_set_no": 999,
        "meta_rev_at_epoch": 10960,
        "meta_bstar": 0.00031135,
        "meta_mean_motion_dot": 7.612e-05,
        "meta_mean_motion_ddot": 0,
        "tle_line1": "1 58700U 24004A   25361.55464213  .00007612  00000+0  31135-3 0  9998",
        "tle_line2": "2 58700  97.4631 182.9687 0006168 227.3560 132.7158 15.24608534109600"
      },
      "geometry": {
        "type": "Point",
        "coordinates": [
          10.201383914507577,
          42.960330921275414
        ]
      }
    }
  ]
}